NORAD_CAT_ID,OBJECT_NAME,OBJECT_TYPE,EPOCH,MEAN_MOTION,ECCENTRICITY,INCLINATION,RA_OF_ASC_NODE,ARG_OF_PERICENTER,MEAN_ANOMALY,BSTAR,MEAN_MOTION_DOT,MEAN_MOTION_DDOT,TLE_LINE0,TLE_LINE1,TLE_LINE2,SEMIMAJOR_AXIS,PERIOD,APOGEE,PERIGEE,DECAYED
54058.0,STARLINK-5167,PAYLOAD,2024-04-07 09:42:57,15.08837789,0.0001495,53.2186,252.3205,94.1906,265.9257,2.4135e-05,9.6e-07,0.0,0 STARLINK-5167,1 54058U 22136H   24098.40483170  .00000096  00000-0  24135-4 0  9990,2 54058  53.2186 252.3205 0001495  94.1906 265.9257 15.08837789 81456,6917.887,95.438,540.786,538.718,0.0
54058.0,STARLINK-5167,PAYLOAD,2024-04-08 09:33:44,15.08836589,0.0001445,53.2162,247.8587,87.2878,272.8279,0.00024876,3.673e-05,0.0,0 STARLINK-5167,1 54058U 22136H   24099.39843645  .00003673  00000-0  24876-3 0  9991,2 54058  53.2162 247.8587 0001445  87.2878 272.8279 15.08836589 81120,6917.891,95.438,540.755,538.756,0.0
54058.0,STARLINK-5167,PAYLOAD,2024-04-08 15:55:17,15.08838722,0.0001448,53.2164,246.6692,87.1551,272.9607,0.00025274,3.737e-05,0.0,0 STARLINK-5167,1 54058U 22136H   24099.66339690  .00003737  00000-0  25274-3 0  9995,2 54058  53.2164 246.6692 0001448  87.1551 272.9607 15.08838722 81640,6917.884,95.438,540.751,538.748,0.0
54058.0,STARLINK-5167,PAYLOAD,2024-04-09 03:02:58,15.08856094,0.0002322,53.2188,244.5871,83.3542,276.7714,0.00059822,9.25e-05,0.0,0 STARLINK-5167,1 54058U 22136H   24100.12707013  .00009250  00000-0  59822-3 0  9999,2 54058  53.2188 244.5871 0002322  83.3542 276.7714 15.08856094 81713,6917.831,95.437,541.303,538.09,0.0
54058.0,STARLINK-5167,PAYLOAD,2024-04-09 14:10:40,15.08845958,0.0002186,53.2168,242.5056,67.1169,293.0054,8.172e-05,1.013e-05,0.0,0 STARLINK-5167,1 54058U 22136H   24100.59074844  .00001013  00000-0  81720-4 0  9991,2 54058  53.2168 242.5056 0002186  67.1169 293.0054 15.08845958 81308,6917.862,95.437,541.239,538.215,0.0
54058.0,STARLINK-5167,PAYLOAD,2024-04-09 17:21:26,15.08848571,0.0001709,53.2157,241.9111,86.1949,273.9239,-0.00022577,-3.88e-05,0.0,0 STARLINK-5167,1 54058U 22136H   24100.72322252 -.00003880  00000-0 -22577-3 0  9995,2 54058  53.2157 241.9111 0001709  86.1949 273.9239 15.08848571 81809,6917.854,95.437,540.901,538.537,0.0
54058.0,STARLINK-5167,PAYLOAD,2024-04-10 09:15:18,15.08828868,0.0001543,53.2156,238.9379,89.5168,270.6001,-0.00030441,-5.128e-05,0.0,0 STARLINK-5167,1 54058U 22136H   24101.38562799 -.00005128  00000-0 -30441-3 0  9996,2 54058  53.2156 238.9379 0001543  89.5168 270.6001 15.08828868 81905,6917.914,95.438,540.847,538.712,0.0
54058.0,STARLINK-5167,PAYLOAD,2024-04-10 15:36:51,15.08826593,0.0001689,53.2168,237.748,88.068,272.0506,-0.00026064,-4.432e-05,0.0,0 STARLINK-5167,1 54058U 22136H   24101.65059432 -.00004432  00000-0 -26064-3 0  9994,2 54058  53.2168 237.7480 0001689  88.0680 272.0506 15.08826593 81462,6917.921,95.438,540.955,538.618,0.0
54058.0,STARLINK-5167,PAYLOAD,2024-04-11 12:16:52,15.08838133,0.0001528,53.2172,233.8823,93.5824,266.5342,0.00018062,2.588e-05,0.0,0 STARLINK-5167,1 54058U 22136H   24102.51171617  .00002588  00000-0  18062-3 0  9997,2 54058  53.2172 233.8823 0001528  93.5824 266.5342 15.08838133 82075,6917.886,95.438,540.808,538.694,0.0
54058.0,STARLINK-5167,PAYLOAD,2024-04-11 13:52:15,15.08838431,0.0001514,53.2172,233.5849,93.6048,266.5118,0.00020215,2.931e-05,0.0,0 STARLINK-5167,1 54058U 22136H   24102.57795643  .00002931  00000-0  20215-3 0  9999,2 54058  53.2172 233.5849 0001514  93.6048 266.5118 15.08838431 81604,6917.885,95.438,540.798,538.703,0.0
54058.0,STARLINK-5167,PAYLOAD,2024-04-11 15:27:38,15.08840056,0.0001415,53.2165,233.289,82.6687,277.4466,0.00026188,3.882e-05,0.0,0 STARLINK-5167,1 54058U 22136H   24102.64419685  .00003882  00000-0  26188-3 0  9997,2 54058  53.2165 233.2890 0001415  82.6687 277.4466 15.08840056 81610,6917.88,95.438,540.724,538.766,0.0
54058.0,STARLINK-5167,PAYLOAD,2024-04-12 13:43:02,15.08841322,0.0001393,53.2171,229.1251,80.0728,280.0421,0.00027571,4.103e-05,0.0,0 STARLINK-5167,1 54058U 22136H   24103.57156075  .00004103  00000-0  27571-3 0  9995,2 54058  53.2171 229.1251 0001393  80.0728 280.0421 15.08841322 81758,6917.876,95.437,540.705,538.778,0.0
54058.0,STARLINK-5167,PAYLOAD,2024-04-12 15:18:25,15.08841012,0.0001334,53.2166,228.8261,77.4564,282.6577,0.00023451,3.446e-05,0.0,0 STARLINK-5167,1 54058U 22136H   24103.63780043  .00003446  00000-0  23451-3 0  9992,2 54058  53.2166 228.8261 0001334  77.4564 282.6577 15.08841012 82243,6917.877,95.437,540.665,538.819,0.0
54058.0,STARLINK-5167,PAYLOAD,2024-04-13 13:33:49,15.08838288,0.0001308,53.2161,224.6632,77.3494,282.7644,4.1034e-05,3.65e-06,0.0,0 STARLINK-5167,1 54058U 22136H   24104.56516137  .00000365  00000-0  41034-4 0  9991,2 54058  53.2161 224.6632 0001308  77.3494 282.7644 15.08838288 81905,6917.886,95.438,540.655,538.846,0.0
54058.0,STARLINK-5167,PAYLOAD,2024-04-14 14:59:59,15.08846364,0.0001288,53.2166,219.9051,88.839,271.275,0.00020101,2.913e-05,0.0,0 STARLINK-5167,1 54058U 22136H   24105.62499856  .00002913  00000-0  20101-3 0  9999,2 54058  53.2166 219.9051 0001288  88.8390 271.2750 15.08846364 82547,6917.861,95.437,540.617,538.835,0.0
54058.0,STARLINK-5167,PAYLOAD,2024-04-15 13:15:23,15.08843642,0.0001421,53.2157,215.7408,62.0325,298.0811,0.00013102,1.798e-05,0.0,0 STARLINK-5167,1 54058U 22136H   24106.55236079  .00001798  00000-0  13102-3 0  9991,2 54058  53.2157 215.7408 0001421  62.0325 298.0811 15.08843642 82684,6917.869,95.437,540.717,538.751,0.0
54058.0,STARLINK-5167,PAYLOAD,2024-04-15 16:26:09,15.08848947,0.000144,53.217,215.1471,86.6796,273.4361,0.00020877,3.037e-05,0.0,0 STARLINK-5167,1 54058U 22136H   24106.68483749  .00003037  00000-0  20877-3 0  9998,2 54058  53.2170 215.1471 0001440  86.6796 273.4361 15.08848947 82228,6917.853,95.437,540.714,538.722,0.0
54058.0,STARLINK-5167,PAYLOAD,2024-04-16 13:06:11,15.08834585,0.0001148,53.2147,211.2846,74.2511,285.8607,-6.6332e-05,-1.343e-05,0.0,0 STARLINK-5167,1 54058U 22136H   24107.54596265 -.00001343  00000-0 -66332-4 0  9999,2 54058  53.2147 211.2846 0001148  74.2511 285.8607 15.08834585 82838,6917.897,95.438,540.556,538.968,0.0
54058.0,STARLINK-5167,PAYLOAD,2024-04-16 14:41:33,15.08853956,0.0001585,53.2165,210.9843,77.384,282.733,0.00030824,4.623e-05,0.0,0 STARLINK-5167,1 54058U 22136H   24107.61219642  .00004623  00000-0  30824-3 0  9996,2 54058  53.2165 210.9843 0001585  77.3840 282.7330 15.08853956 82365,6917.838,95.437,540.799,538.606,0.0
54058.0,STARLINK-5167,PAYLOAD,2024-04-17 12:56:57,15.08858638,0.0001448,53.2166,206.8218,98.447,261.6686,0.0003703,5.613e-05,0.0,0 STARLINK-5167,1 54058U 22136H   24108.53954870  .00005613  00000-0  37030-3 0  9993,2 54058  53.2166 206.8218 0001448  98.4470 261.6686 15.08858638 82505,6917.823,95.436,540.69,538.687,0.0
54058.0,STARLINK-5167,PAYLOAD,2024-04-18 12:47:44,15.08835507,0.0001267,53.2165,202.3608,107.7935,252.3196,-7.6763e-05,-1.509e-05,0.0,0 STARLINK-5167,1 54058U 22136H   24109.53315678 -.00001509  00000-0 -76763-4 0  9990,2 54058  53.2165 202.3608 0001267 107.7935 252.3196 15.08835507 83130,6917.894,95.438,540.636,538.883,0.0
54058.0,STARLINK-5167,PAYLOAD,2024-04-19 11:03:09,15.08827529,0.0001703,53.2166,198.2029,51.8937,308.2209,0.00022199,3.246e-05,0.0,0 STARLINK-5167,1 54058U 22136H   24110.46053132  .00003246  00000-0  22199-3 0  9999,2 54058  53.2166 198.2029 0001703  51.8937 308.2209 15.08827529 83273,6917.919,95.438,540.962,538.605,0.0
54058.0,STARLINK-5167,PAYLOAD,2024-04-20 12:29:19,15.08845052,0.0001387,53.2162,193.4386,109.2687,250.8455,0.00033297,5.016e-05,0.0,0 STARLINK-5167,1 54058U 22136H   24111.52036187  .00005016  00000-0  33297-3 0  9996,2 54058  53.2162 193.4386 0001387 109.2687 250.8455 15.08845052 83434,6917.865,95.437,540.689,538.77,0.0
54058.0,STARLINK-5167,PAYLOAD,2024-04-21 13:55:29,15.08840853,0.0001549,53.2164,188.6771,93.4155,266.7015,2.0298e-05,3.5e-07,0.0,0 STARLINK-5167,1 54058U 22136H   24112.58020268  .00000035  00000-0  20298-4 0  9990,2 54058  53.2164 188.6771 0001549  93.4155 266.7015 15.08840853 83111,6917.878,95.438,540.814,538.671,0.0
54058.0,STARLINK-5167,PAYLOAD,2024-04-22 04:13:58,15.08828825,0.0001822,53.2171,186.0057,102.8506,257.269,3.8539e-07,-2.82e-06,0.0,0 STARLINK-5167,1 54058U 22136H   24113.17637010 -.00000282  00000-0  38539-6 0  9999,2 54058  53.2171 186.0057 0001822 102.8506 257.2690 15.08828825 83688,6917.915,95.438,541.04,538.519,0.0
54058.0,STARLINK-5167,PAYLOAD,2024-04-22 10:35:31,15.08827805,0.0001782,53.2168,184.8153,101.8803,258.2389,-4.0197e-05,-9.28e-06,0.0,0 STARLINK-5167,1 54058U 22136H   24113.44133423 -.00000928  00000-0 -40197-4 0  9997,2 54058  53.2168 184.8153 0001782 101.8803 258.2389 15.08827805 83246,6917.918,95.438,541.015,538.55,0.0
54058.0,STARLINK-5167,PAYLOAD,2024-04-22 12:10:54,15.08828875,0.0001743,53.2172,184.5183,94.2593,265.8598,3.1572e-05,2.14e-06,0.0,0 STARLINK-5167,1 54058U 22136H   24113.50757468  .00000214  00000-0  31572-4 0  9998,2 54058  53.2172 184.5183 0001743  94.2593 265.8598 15.08828875 83254,6917.914,95.438,540.985,538.574,0.0
54058.0,STARLINK-5167,PAYLOAD,2024-04-23 12:01:41,15.08837367,0.0001839,53.2168,180.0577,81.3322,278.7878,0.00025595,3.787e-05,0.0,0 STARLINK-5167,1 54058U 22136H   24114.50117797  .00003787  00000-0  25595-3 0  9999,2 54058  53.2168 180.0577 0001839  81.3322 278.7878 15.08837367 83889,6917.888,95.438,541.026,538.481,0.0
54058.0,STARLINK-5167,PAYLOAD,2024-04-24 10:17:05,15.08840131,0.0001829,53.2165,175.8931,77.2566,282.863,0.0001673,2.375e-05,0.0,0 STARLINK-5167,1 54058U 22136H   24115.42853972  .00002375  00000-0  16730-3 0  9996,2 54058  53.2165 175.8931 0001829  77.2566 282.8630 15.08840131 83543,6917.88,95.438,541.01,538.48,0.0
54058.0,STARLINK-5167,PAYLOAD,2024-04-25 10:07:53,15.08837259,0.0001376,53.2166,171.4478,109.1074,251.0067,-0.00012599,-2.292e-05,0.0,0 STARLINK-5167,1 54058U 22136H   24116.42214313 -.00002292  00000-0 -12599-3 0  9996,2 54058  53.2166 171.4478 0001376 109.1074 251.0067 15.08837259 84177,6917.889,95.438,540.706,538.802,0.0
